{
  "norad_id": 67057,
  "name": "STARLINK-36141",
  "history": [
    {
      "epoch": "2026-04-16T13:31:34.056768Z",
      "apogee_km": 484.1501229684518,
      "perigee_km": 481.91475396539863,
      "latitude_deg": -5.4157932311092074e-05,
      "longitude_deg": 136.39604171630006,
      "height_km": 482.6506848263629,
      "semi_major_axis_km": 6861.1694384669245,
      "eccentricity": 0.0001629,
      "inclination_deg": 43.0001,
      "raan_deg": 183.9975,
      "arg_perigee_deg": 278.1613,
      "mean_anomaly_deg": 81.9053,
      "mean_motion_rev_day": 15.27585563
    },
    {
      "epoch": "2026-04-17T14:38:04.531488Z",
      "apogee_km": 484.255853159244,
      "perigee_km": 481.8422251343927,
      "latitude_deg": -5.3585391306561795e-05,
      "longitude_deg": 112.827997829706,
      "height_km": 482.7194690125745,
      "semi_major_axis_km": 6861.186039146818,
      "eccentricity": 0.00017589,
      "inclination_deg": 42.9985,
      "raan_deg": 178.0876,
      "arg_perigee_deg": 275.0585,
      "mean_anomaly_deg": 85.0065,
      "mean_motion_rev_day": 15.27580019
    },
    {
      "epoch": "2026-04-18T11:02:06.442656Z",
      "apogee_km": 484.05243962396344,
      "perigee_km": 481.970492733386,
      "latitude_deg": 4.800737520514487e-06,
      "longitude_deg": 161.18187731363065,
      "height_km": 482.7358621173565,
      "semi_major_axis_km": 6861.148466178674,
      "eccentricity": 0.00015172,
      "inclination_deg": 42.9987,
      "raan_deg": 173.2872,
      "arg_perigee_deg": 272.8777,
      "mean_anomaly_deg": 87.1901,
      "mean_motion_rev_day": 15.27592567
    },
    {
      "epoch": "2026-04-19T10:34:26.607072Z",
      "apogee_km": 483.9940011890558,
      "perigee_km": 481.9632481864601,
      "latitude_deg": -3.879686788828326e-06,
      "longitude_deg": 161.59263940557838,
      "height_km": 482.72649973735133,
      "semi_major_axis_km": 6861.115624687757,
      "eccentricity": 0.00014799,
      "inclination_deg": 42.9984,
      "raan_deg": 167.7487,
      "arg_perigee_deg": 271.6206,
      "mean_anomaly_deg": 88.4476,
      "mean_motion_rev_day": 15.27603535
    },
    {
      "epoch": "2026-04-20T10:06:47.829024Z",
      "apogee_km": 483.78309587574495,
      "perigee_km": 482.31617417317557,
      "latitude_deg": -2.002471222546842e-05,
      "longitude_deg": 161.9946739931436,
      "height_km": 482.9299382748188,
      "semi_major_axis_km": 6861.18663502446,
      "eccentricity": 0.0001069,
      "inclination_deg": 42.9954,
      "raan_deg": 162.2059,
      "arg_perigee_deg": 261.8154,
      "mean_anomaly_deg": 98.2576,
      "mean_motion_rev_day": 15.2757982
    },
    {
      "epoch": "2026-04-21T14:21:35.928864Z",
      "apogee_km": 483.8975701118725,
      "perigee_km": 481.950401004171,
      "latitude_deg": -1.3679963652302427e-05,
      "longitude_deg": 90.4894113975327,
      "height_km": 482.749796602325,
      "semi_major_axis_km": 6861.0609855580215,
      "eccentricity": 0.0001419,
      "inclination_deg": 42.9985,
      "raan_deg": 155.5611,
      "arg_perigee_deg": 267.0991,
      "mean_anomaly_deg": 92.9698,
      "mean_motion_rev_day": 15.27621783
    },
    {
      "epoch": "2026-04-22T13:53:57.535296Z",
      "apogee_km": 484.72077928505223,
      "perigee_km": 481.4356294452027,
      "latitude_deg": -6.024040685909862e-05,
      "longitude_deg": 90.8949063474949,
      "height_km": 482.9614538743787,
      "semi_major_axis_km": 6861.215204365128,
      "eccentricity": 0.0002394,
      "inclination_deg": 43.002,
      "raan_deg": 150.0234,
      "arg_perigee_deg": 266.3146,
      "mean_anomaly_deg": 93.7431,
      "mean_motion_rev_day": 15.27570279
    },
    {
      "epoch": "2026-04-23T10:18:00.007200Z",
      "apogee_km": 484.4115800375939,
      "perigee_km": 481.67986874770395,
      "latitude_deg": -5.81507346699482e-05,
      "longitude_deg": 139.24748076349448,
      "height_km": 483.08626609198,
      "semi_major_axis_km": 6861.182724392648,
      "eccentricity": 0.00019907,
      "inclination_deg": 43.003,
      "raan_deg": 145.2241,
      "arg_perigee_deg": 258.8939,
      "mean_anomaly_deg": 101.1688,
      "mean_motion_rev_day": 15.27581126
    }
  ]
}